{"type": "FeatureCollection", "features": [ {"type": "Feature", "properties": {"norad_id": 29953, "name": "FENGYUN 1C DEB", "group": "fengyun-1c-debris", "lat": -45.239676494966226, "lon": -18.978619752386837, "alt_km": 875.0460514605174, "timestamp": "2025-12-10T21:43:22.360533+00:00", "meta": {"OBJECT_NAME": "FENGYUN 1C DEB", "OBJECT_ID": "1999-025KB", "EPOCH": "2025-12-10T12:09:59.942592", "MEAN_MOTION": 13.90842667, "ECCENTRICITY": 0.01055247, "INCLINATION": 98.937, "RA_OF_ASC_NODE": 331.5082, "ARG_OF_PERICENTER": 272.8195, "MEAN_ANOMALY": 207.9054, "EPHEMERIS_TYPE": 0, "CLASSIFICATION_TYPE": "U", "NORAD_CAT_ID": 29953, "ELEMENT_SET_NO": 999, "REV_AT_EPOCH": 95831, "BSTAR": 0.0006205333, "MEAN_MOTION_DOT": 7.69e-06, "MEAN_MOTION_DDOT": 0}, "tle": {"line1": "1 29953U 99025KB  25344.50694378  .00000769  00000+0  62053-3 0  9993", "line2": "2 29953  98.9370 331.5082 0105524 272.8195 207.9054 13.90842667958318"}}, "geometry": {"type": "Point", "coordinates": [-18.978619752386837, -45.239676494966226]}}, {"type": "Feature", "properties": {"norad_id": 29954, "name": "FENGYUN 1C DEB", "group": "fengyun-1c-debris", "lat": -20.51774810993585, "lon": 26.5223031944745, "alt_km": 759.8343991682677, "timestamp": "2025-12-10T21:43:22.360544+00:00", "meta": {"OBJECT_NAME": "FENGYUN 1C DEB", "OBJECT_ID": "1999-025KC", "EPOCH": "2025-12-10T13:26:52.874016", "MEAN_MOTION": 14.34211481, "ECCENTRICITY": 0.00743006, "INCLINATION": 100.1512, "RA_OF_ASC_NODE": 22.2735, "ARG_OF_PERICENTER": 275.4369, "MEAN_ANOMALY": 83.8337, "EPHEMERIS_TYPE": 0, "CLASSIFICATION_TYPE": "U", "NORAD_CAT_ID": 29954, "ELEMENT_SET_NO": 999, "REV_AT_EPOCH": 98156, "BSTAR": 0.0012232711, "MEAN_MOTION_DOT": 3.481e-05, "MEAN_MOTION_DDOT": 0}, "tle": {"line1": "1 29954U 99025KC  25344.56033419  .00003481  00000+0  12233-2 0  9991", "line2": "2 29954 100.1512  22.2735 0074300 275.4369  83.8337 14.34211481981562"}}, "geometry": {"type": "Point", "coordinates": [26.5223031944745, -20.51774810993585]}}, {"type": "Feature", "properties": {"norad_id": 29955, "name": "FENGYUN 1C DEB", "group": "fengyun-1c-debris", "lat": 44.02181055053474, "lon": 56.34241747746104, "alt_km": 765.319401681314, "timestamp": "2025-12-10T21:43:22.360554+00:00", "meta": {"OBJECT_NAME": "FENGYUN 1C DEB", "OBJECT_ID": "1999-025KD", "EPOCH": "2025-12-10T04:56:44.824704", "MEAN_MOTION": 14.3820401, "ECCENTRICITY": 0.00074488, "INCLINATION": 99.2736, "RA_OF_ASC_NODE": 64.6735, "ARG_OF_PERICENTER": 255.3563, "MEAN_ANOMALY": 132.1363, "EPHEMERIS_TYPE": 0, "CLASSIFICATION_TYPE": "U", "NORAD_CAT_ID": 29955, "ELEMENT_SET_NO": 999, "REV_AT_EPOCH": 98025, "BSTAR": 0.0022017308, "MEAN_MOTION_DOT": 6.645e-05, "MEAN_MOTION_DDOT": 0}, "tle": {"line1": "1 29955U 99025KD  25344.20607436  .00006645  00000+0  22017-2 0  9995", "line2": "2 29955  99.2736  64.6735 0007448 255.3563 132.1363 14.38204010980257"}}, "geometry": {"type": "Point", "coordinates": [56.34241747746104, 44.02181055053474]}}, {"type": "Feature", "properties": {"norad_id": 29956, "name": "FENGYUN 1C DEB", "group": "fengyun-1c-debris", "lat": -40.09711267543146, "lon": 21.300533481747383, "alt_km": 861.2301730689787, "timestamp": "2025-12-10T21:43:22.360565+00:00", "meta": {"OBJECT_NAME": "FENGYUN 1C DEB", "OBJECT_ID": "1999-025KE", "EPOCH": "2025-12-10T10:13:33.161664", "MEAN_MOTION": 14.06170639, "ECCENTRICITY": 0.00538617, "INCLINATION": 98.7921, "RA_OF_ASC_NODE": 13.3479, "ARG_OF_PERICENTER": 24.0451, "MEAN_ANOMALY": 32.2599, "EPHEMERIS_TYPE": 0, "CLASSIFICATION_TYPE": "U", "NORAD_CAT_ID": 29956, "ELEMENT_SET_NO": 999, "REV_AT_EPOCH": 97017, "BSTAR": 8.869035e-06, "MEAN_MOTION_DOT": -2.8e-07, "MEAN_MOTION_DDOT": 0}, "tle": {"line1": "1 29956U 99025KE  25344.42607826 -.00000028  00000+0  88690-5 0  9995", "line2": "2 29956  98.7921  13.3479 0053861  24.0451  32.2599 14.06170639970176"}}, "geometry": {"type": "Point", "coordinates": [21.300533481747383, -40.09711267543146]}}, {"type": "Feature", "properties": {"norad_id": 29957, "name": "FENGYUN 1C DEB", "group": "fengyun-1c-debris", "lat": 73.87865665175889, "lon": 78.84777113069372, "alt_km": 722.9920197144111, "timestamp": "2025-12-10T21:43:22.360576+00:00", "meta": {"OBJECT_NAME": "FENGYUN 1C DEB", "OBJECT_ID": "1999-025KF", "EPOCH": "2025-12-10T08:24:41.503968", "MEAN_MOTION": 14.50973753, "ECCENTRICITY": 0.00381812, "INCLINATION": 98.9205, "RA_OF_ASC_NODE": 111.1758, "ARG_OF_PERICENTER": 184.9836, "MEAN_ANOMALY": 236.4535, "EPHEMERIS_TYPE": 0, "CLASSIFICATION_TYPE": "U", "NORAD_CAT_ID": 29957, "ELEMENT_SET_NO": 999, "REV_AT_EPOCH": 97457, "BSTAR": 0.0077816608, "MEAN_MOTION_DOT": 0.00031141, "MEAN_MOTION_DDOT": 0}, "tle": {"line1": "1 29957U 99025KF  25344.35048037  .00031141  00000+0  77817-2 0  9996", "line2": "2 29957  98.9205 111.1758 0038181 184.9836 236.4535 14.50973753974575"}}, "geometry": {"type": "Point", "coordinates": [78.84777113069372, 73.87865665175889]}}, {"type": "Feature", "properties": {"norad_id": 29958, "name": "FENGYUN 1C DEB", "group": "fengyun-1c-debris", "lat": -50.56104163993665, "lon": 168.63723110461225, "alt_km": 862.5120907366327, "timestamp": "2025-12-10T21:43:22.360586+00:00", "meta": {"OBJECT_NAME": "FENGYUN 1C DEB", "OBJECT_ID": "1999-025KG", "EPOCH": "2025-12-10T12:08:24.797184", "MEAN_MOTION": 14.14452454, "ECCENTRICITY": 0.00544697, "INCLINATION": 98.6687, "RA_OF_ASC_NODE": 358.9383, "ARG_OF_PERICENTER": 339.6775, "MEAN_ANOMALY": 20.2231, "EPHEMERIS_TYPE": 0, "CLASSIFICATION_TYPE": "U", "NORAD_CAT_ID": 29958, "ELEMENT_SET_NO": 999, "REV_AT_EPOCH": 97419, "BSTAR": 0.00051154099, "MEAN_MOTION_DOT": 9.51e-06, "MEAN_MOTION_DDOT": 0}, "tle": {"line1": "1 29958U 99025KG  25344.50584256  .00000951  00000+0  51154-3 0  9994", "line2": "2 29958  98.6687 358.9383 0054469 339.6775  20.2231 14.14452454974190"}}, "geometry": {"type": "Point", "coordinates": [168.63723110461225, -50.56104163993665]}}, {"type": "Feature", "properties": {"norad_id": 29959, "name": "FENGYUN 1C DEB", "group": "fengyun-1c-debris", "lat": -79.33202251113964, "lon": 140.2177728173953, "alt_km": 869.5359167043389, "timestamp": "2025-12-10T21:43:22.360596+00:00", "meta": {"OBJECT_NAME": "FENGYUN 1C DEB", "OBJECT_ID": "1999-025KH", "EPOCH": "2025-12-10T08:35:43.474848", "MEAN_MOTION": 14.06014122, "ECCENTRICITY": 0.00417602, "INCLINATION": 98.8086, "RA_OF_ASC_NODE": 15.0872, "ARG_OF_PERICENTER": 334.7673, "MEAN_ANOMALY": 42.5565, "EPHEMERIS_TYPE": 0, "CLASSIFICATION_TYPE": "U", "NORAD_CAT_ID": 29959, "ELEMENT_SET_NO": 999, "REV_AT_EPOCH": 96907, "BSTAR": 0.0001733286, "MEAN_MOTION_DOT": 2.43e-06, "MEAN_MOTION_DDOT": 0}, "tle": {"line1": "1 29959U 99025KH  25344.35814207  .00000243  00000+0  17333-3 0  9995", "line2": "2 29959  98.8086  15.0872 0041760 334.7673  42.5565 14.06014122969078"}}, "geometry": {"type": "Point", "coordinates": [140.2177728173953, -79.33202251113964]}}, {"type": "Feature", "properties": {"norad_id": 29960, "name": "FENGYUN 1C DEB", "group": "fengyun-1c-debris", "lat": -81.34828999153096, "lon": 55.56574663659726, "alt_km": 783.4484169824509, "timestamp": "2025-12-10T21:43:22.360607+00:00", "meta": {"OBJECT_NAME": "FENGYUN 1C DEB", "OBJECT_ID": "1999-025KJ", "EPOCH": "2025-12-10T12:34:52.582080", "MEAN_MOTION": 14.16396281, "ECCENTRICITY": 0.00910148, "INCLINATION": 98.6143, "RA_OF_ASC_NODE": 330.1658, "ARG_OF_PERICENTER": 292.7181, "MEAN_ANOMALY": 197.2722, "EPHEMERIS_TYPE": 0, "CLASSIFICATION_TYPE": "U", "NORAD_CAT_ID": 29960, "ELEMENT_SET_NO": 999, "REV_AT_EPOCH": 97423, "BSTAR": 0.000748542, "MEAN_MOTION_DOT": 1.505e-05, "MEAN_MOTION_DDOT": 0}, "tle": {"line1": "1 29960U 99025KJ  25344.52421970  .00001505  00000+0  74854-3 0  9990", "line2": "2 29960  98.6143 330.1658 0091014 292.7181 197.2722 14.16396281974236"}}, "geometry": {"type": "Point", "coordinates": [55.56574663659726, -81.34828999153096]}}, {"type": "Feature", "properties": {"norad_id": 29961, "name": "FENGYUN 1C DEB", "group": "fengyun-1c-debris", "lat": 14.591855860442655, "lon": -130.09547429671, "alt_km": 782.0863802574568, "timestamp": "2025-12-10T21:43:22.360617+00:00", "meta": {"OBJECT_NAME": "FENGYUN 1C DEB", "OBJECT_ID": "1999-025KK", "EPOCH": "2025-12-10T11:33:07.376832", "MEAN_MOTION": 14.26211059, "ECCENTRICITY": 0.00742344, "INCLINATION": 98.9486, "RA_OF_ASC_NODE": 231.8226, "ARG_OF_PERICENTER": 311.4808, "MEAN_ANOMALY": 48.0014, "EPHEMERIS_TYPE": 0, "CLASSIFICATION_TYPE": "U", "NORAD_CAT_ID": 29961, "ELEMENT_SET_NO": 999, "REV_AT_EPOCH": 98277, "BSTAR": 0.00032006877, "MEAN_MOTION_DOT": 7.42e-06, "MEAN_MOTION_DDOT": 0}, "tle": {"line1": "1 29961U 99025KK  25344.48133538  .00000742  00000+0  32007-3 0  9992", "line2": "2 29961  98.9486 231.8226 0074234 311.4808  48.0014 14.26211059982773"}}, "geometry": {"type": "Point", "coordinates": [-130.09547429671, 14.591855860442655]}}, {"type": "Feature", "properties": {"norad_id": 29962, "name": "FENGYUN 1C DEB", "group": "fengyun-1c-debris", "lat": -46.29120906462777, "lon": 2.425206970399012, "alt_km": 870.3395627632035, "timestamp": "2025-12-10T21:43:22.360627+00:00", "meta": {"OBJECT_NAME": "FENGYUN 1C DEB", "OBJECT_ID": "1999-025KL", "EPOCH": "2025-12-10T12:26:15.166176", "MEAN_MOTION": 14.07154961, "ECCENTRICITY": 0.01096242, "INCLINATION": 98.7686, "RA_OF_ASC_NODE": 352.7581, "ARG_OF_PERICENTER": 227.5133, "MEAN_ANOMALY": 285.5174, "EPHEMERIS_TYPE": 0, "CLASSIFICATION_TYPE": "U", "NORAD_CAT_ID": 29962, "ELEMENT_SET_NO": 999, "REV_AT_EPOCH": 96966, "BSTAR": 0.0001628726, "MEAN_MOTION_DOT": 2.45e-06, "MEAN_MOTION_DDOT": 0}, "tle": {"line1": "1 29962U 99025KL  25344.51823109  .00000245  00000+0  16287-3 0  9997", "line2": "2 29962  98.7686 352.7581 0109624 227.5133 285.5174 14.07154961969666"}}, "geometry": {"type": "Point", "coordinates": [2.425206970399012, -46.29120906462777]}}]}